{"type": "FeatureCollection", "features": [{"type": "Feature", "properties": {"color_index": 0, "feature_type": "territory", "owner": "me", "is_premium": true, "cx": 7.686452, "cy": 45.069623, "area_m2": 28365, "pin": "pin-me"}, "geometry": {"type": "Polygon", "coordinates": [[[7.684982, 45.07132], [7.684944, 45.071263], [7.684664, 45.070838], [7.684649, 45.070813], [7.684624, 45.070778], [7.684586, 45.070789], [7.684558, 45.070743], [7.684549, 45.070731], [7.684537, 45.070714], [7.68452, 45.070686], [7.684554, 45.070675], [7.684529, 45.07064], [7.684507, 45.07061], [7.684452, 45.070558], [7.684443, 45.070545], [7.684421, 45.070517], [7.684489, 45.070493], [7.684552, 45.070471], [7.684637, 45.070442], [7.684677, 45.070427], [7.684314, 45.069932], [7.684291, 45.069897], [7.685006, 45.069634], [7.685353, 45.069506], [7.685412, 45.069484], [7.686286, 45.069154], [7.686324, 45.06914], [7.686563, 45.069052], [7.686581, 45.069047], [7.686598, 45.06904], [7.68664, 45.069023], [7.686652, 45.069039], [7.686735, 45.069007], [7.687643, 45.06866], [7.688023, 45.06921], [7.688128, 45.069363], [7.68812, 45.069368], [7.688056, 45.06941], [7.688085, 45.069428], [7.688113, 45.069466], [7.688133, 45.069492], [7.688153, 45.069518], [7.688186, 45.069564], [7.688206, 45.069591], [7.688026, 45.069708], [7.687901, 45.069781], [7.687772, 45.069865], [7.687583, 45.069983], [7.687458, 45.070066], [7.687386, 45.070112], [7.68715, 45.070279], [7.687107, 45.070324], [7.687074, 45.07028], [7.687072, 45.070278], [7.687041, 45.070231], [7.687026, 45.070207], [7.68701, 45.070186], [7.686993, 45.070166], [7.686937, 45.070198], [7.686654, 45.069807], [7.685797, 45.070098], [7.685494, 45.070206], [7.684707, 45.070469], [7.684582, 45.070513], [7.684452, 45.070558], [7.684507, 45.07061], [7.684529, 45.07064], [7.684554, 45.070675], [7.68452, 45.070686], [7.684537, 45.070714], [7.684549, 45.070731], [7.684558, 45.070743], [7.684586, 45.070789], [7.684624, 45.070778], [7.684649, 45.070813], [7.684664, 45.070838], [7.684944, 45.071263], [7.684982, 45.07132]]]}}, {"type": "Feature", "properties": {"color_index": 1, "feature_type": "territory", "owner": "rival1", "is_premium": false, "cx": 7.689757, "cy": 45.07046, "area_m2": 82359, "pin": "pin-rival1"}, "geometry": {"type": "Polygon", "coordinates": [[[7.689029, 45.071465], [7.688145, 45.071413], [7.687762, 45.071369], [7.68769, 45.071302], [7.687595, 45.071163], [7.687609, 45.071139], [7.687618, 45.071135], [7.687666, 45.07111], [7.687615, 45.071026], [7.687197, 45.070444], [7.687183, 45.070428], [7.68718, 45.070424], [7.687164, 45.070405], [7.68714, 45.070372], [7.687107, 45.070324], [7.68715, 45.070279], [7.687386, 45.070112], [7.687458, 45.070066], [7.687583, 45.069983], [7.687772, 45.069865], [7.687901, 45.069781], [7.688026, 45.069708], [7.688206, 45.069591], [7.688242, 45.069565], [7.688274, 45.069547], [7.688317, 45.069521], [7.68836, 45.069497], [7.688396, 45.069475], [7.688955, 45.069125], [7.689187, 45.068979], [7.689242, 45.068944], [7.689269, 45.068927], [7.689284, 45.068944], [7.689289, 45.068947], [7.689317, 45.068961], [7.689331, 45.068968], [7.689655, 45.069437], [7.689665, 45.069451], [7.689676, 45.069465], [7.690729, 45.06904], [7.690748, 45.069033], [7.690782, 45.069019], [7.690803, 45.06901], [7.690832, 45.068999], [7.690855, 45.068989], [7.690865, 45.068985], [7.690875, 45.068997], [7.69088, 45.069006], [7.690889, 45.069019], [7.69094, 45.069092], [7.691526, 45.069932], [7.691543, 45.069957], [7.691559, 45.069981], [7.691571, 45.069999], [7.692441, 45.07123], [7.692525, 45.071338], [7.692566, 45.071354], [7.692594, 45.071354], [7.692597, 45.071378], [7.692601, 45.071383], [7.692562, 45.071418], [7.692547, 45.071433], [7.692531, 45.071452], [7.692521, 45.071464], [7.692398, 45.071439], [7.692231, 45.071559], [7.691993, 45.071374], [7.691869, 45.071278], [7.691739, 45.071257], [7.691613, 45.071267], [7.691371, 45.071343], [7.691349, 45.071364], [7.691277, 45.071434], [7.69102, 45.071538], [7.690583, 45.071543], [7.690131, 45.071653], [7.689936, 45.071756], [7.689808, 45.071771], [7.689029, 45.071465]]]}}, {"type": "Feature", "properties": {"color_index": 2, "feature_type": "territory", "owner": "rival2", "is_premium": false, "cx": 7.682437, "cy": 45.070106, "area_m2": 46508, "pin": "pin-rival2"}, "geometry": {"type": "Polygon", "coordinates": [[[7.680784, 45.071319], [7.680691, 45.071199], [7.680742, 45.071182], [7.680666, 45.07108], [7.680657, 45.071067], [7.68032, 45.070549], [7.680321, 45.070535], [7.680321, 45.070517], [7.680371, 45.07052], [7.680376, 45.070502], [7.680378, 45.070493], [7.680382, 45.070475], [7.680386, 45.070459], [7.680392, 45.070436], [7.680371, 45.070418], [7.680496, 45.070367], [7.680814, 45.070262], [7.681035, 45.070183], [7.681019, 45.070158], [7.681016, 45.070153], [7.680987, 45.070111], [7.681019, 45.0701], [7.681051, 45.070075], [7.681077, 45.070036], [7.681083, 45.070005], [7.681046, 45.069956], [7.681093, 45.069935], [7.681099, 45.069932], [7.681124, 45.06992], [7.68115, 45.069908], [7.680641, 45.069269], [7.680665, 45.06925], [7.680721, 45.06923], [7.681602, 45.068923], [7.68163, 45.068913], [7.681647, 45.068937], [7.68186, 45.069245], [7.681943, 45.069377], [7.682036, 45.06952], [7.682065, 45.069512], [7.682126, 45.069555], [7.68215, 45.069572], [7.68222, 45.06964], [7.68223, 45.069656], [7.682271, 45.06972], [7.68229, 45.069715], [7.682312, 45.06971], [7.682333, 45.069705], [7.682976, 45.06947], [7.683057, 45.069439], [7.683095, 45.069427], [7.683516, 45.06927], [7.683542, 45.069306], [7.683602, 45.069284], [7.683686, 45.069253], [7.683686, 45.069253], [7.68377, 45.069221], [7.683799, 45.069206], [7.683807, 45.069218], [7.683832, 45.069253], [7.684255, 45.069847], [7.684291, 45.069897], [7.684314, 45.069932], [7.684677, 45.070427], [7.684637, 45.070442], [7.684552, 45.070471], [7.684489, 45.070493], [7.684421, 45.070517], [7.684106, 45.070617], [7.68404, 45.070637], [7.684051, 45.070705], [7.684044, 45.070753], [7.684044, 45.070756], [7.684043, 45.070762], [7.684042, 45.070768], [7.684041, 45.070779], [7.68404, 45.070783], [7.684038, 45.0708], [7.684027, 45.070825], [7.683922, 45.070818], [7.683795, 45.070865], [7.683738, 45.070884], [7.683482, 45.07097], [7.683232, 45.071055], [7.68322, 45.071058], [7.683181, 45.071001], [7.683179, 45.070995], [7.683045, 45.070794], [7.682977, 45.070787], [7.682971, 45.070786], [7.682913, 45.070779], [7.682893, 45.070779], [7.682816, 45.070756], [7.681817, 45.070692], [7.681748, 45.070686], [7.681665, 45.070681], [7.681674, 45.070694], [7.681678, 45.070702], [7.681575, 45.070773], [7.680787, 45.071041], [7.680814, 45.071088], [7.680783, 45.071167], [7.680742, 45.071182], [7.680691, 45.071199], [7.680784, 45.071319]]]}}, {"type": "Feature", "properties": {"color_index": 3, "feature_type": "territory", "owner": "rival3", "is_premium": false, "cx": 7.688463, "cy": 45.067877, "area_m2": 46056, "pin": "pin-rival3"}, "geometry": {"type": "Polygon", "coordinates": [[[7.687355, 45.068253], [7.687134, 45.067942], [7.687194, 45.067921], [7.687236, 45.067905], [7.687232, 45.067898], [7.687214, 45.067872], [7.687198, 45.067849], [7.68672, 45.067145], [7.686692, 45.067103], [7.686728, 45.067091], [7.687721, 45.066717], [7.687707, 45.066699], [7.687689, 45.066674], [7.687715, 45.066664], [7.687733, 45.06669], [7.687746, 45.066708], [7.688058, 45.067129], [7.688077, 45.067122], [7.688515, 45.066965], [7.688576, 45.066949], [7.688968, 45.066812], [7.689204, 45.066721], [7.689218, 45.066716], [7.689259, 45.066775], [7.689417, 45.066999], [7.689425, 45.06701], [7.689436, 45.067025], [7.689484, 45.067084], [7.689645, 45.067311], [7.689908, 45.06769], [7.690077, 45.067927], [7.690162, 45.068047], [7.69021, 45.068114], [7.69022, 45.068128], [7.69023, 45.068142], [7.690212, 45.068153], [7.6902, 45.068162], [7.690104, 45.068226], [7.690088, 45.068236], [7.690036, 45.06827], [7.689994, 45.068298], [7.689926, 45.068342], [7.689689, 45.068496], [7.689327, 45.068729], [7.689296, 45.068749], [7.689208, 45.068807], [7.689114, 45.068867], [7.689101, 45.068845], [7.689083, 45.068818], [7.689068, 45.068799], [7.689042, 45.068774], [7.688749, 45.068962], [7.688402, 45.069186], [7.688247, 45.069287], [7.688223, 45.069302], [7.6882, 45.069317], [7.688158, 45.069344], [7.688128, 45.069363], [7.687643, 45.06866], [7.687624, 45.06863], [7.6876, 45.068599], [7.687355, 45.068253]]]}}, {"type": "Feature", "properties": {"color_index": 4, "feature_type": "territory", "owner": "rival4", "is_premium": false, "cx": 7.684194, "cy": 45.072765, "area_m2": 57535, "pin": "pin-rival4"}, "geometry": {"type": "Polygon", "coordinates": [[[7.68285, 45.074298], [7.682808, 45.074252], [7.682529, 45.073941], [7.682453, 45.073908], [7.682538, 45.073872], [7.682574, 45.073857], [7.682737, 45.073793], [7.68293, 45.073706], [7.683162, 45.073471], [7.683203, 45.073429], [7.683445, 45.07342], [7.683437, 45.073399], [7.683428, 45.073377], [7.683154, 45.072896], [7.682956, 45.072633], [7.682895, 45.072536], [7.682844, 45.072455], [7.682727, 45.07227], [7.682605, 45.072078], [7.683099, 45.071904], [7.683543, 45.071748], [7.6836, 45.071727], [7.683607, 45.071725], [7.683647, 45.071711], [7.684576, 45.071398], [7.684539, 45.071347], [7.684432, 45.071188], [7.684262, 45.070934], [7.684204, 45.070847], [7.684027, 45.070825], [7.684038, 45.0708], [7.68404, 45.070783], [7.684041, 45.070779], [7.684055, 45.070784], [7.68418, 45.070817], [7.684195, 45.070819], [7.684307, 45.070833], [7.68433, 45.070836], [7.684392, 45.070838], [7.684456, 45.070836], [7.684499, 45.070833], [7.684553, 45.070828], [7.6846, 45.070822], [7.684649, 45.070813], [7.684664, 45.070838], [7.684944, 45.071263], [7.685336, 45.071859], [7.685533, 45.071796], [7.68561, 45.071909], [7.685706, 45.072047], [7.685821, 45.072214], [7.686039, 45.072528], [7.686069, 45.072569], [7.686126, 45.072647], [7.685746, 45.072777], [7.685607, 45.072825], [7.68542, 45.072909], [7.68522, 45.07299], [7.685121, 45.073131], [7.684805, 45.073247], [7.685156, 45.073794], [7.685026, 45.073839], [7.685044, 45.073871], [7.685182, 45.074076], [7.685358, 45.074342], [7.685341, 45.074349], [7.685163, 45.074082], [7.685182, 45.074076], [7.685044, 45.073871], [7.685026, 45.073839], [7.684981, 45.073854], [7.684967, 45.073858], [7.68479, 45.07392], [7.684686, 45.073955], [7.684528, 45.074009], [7.684197, 45.074124], [7.684192, 45.074126], [7.684083, 45.074163], [7.683951, 45.074221], [7.683497, 45.074397], [7.683087, 45.074556], [7.68285, 45.074298]]]}}, {"type": "Feature", "properties": {"color_index": 5, "feature_type": "territory", "owner": "rival5", "is_premium": false, "cx": 7.684634, "cy": 45.067463, "area_m2": 81873, "pin": "pin-rival5"}, "geometry": {"type": "Polygon", "coordinates": [[[7.682869, 45.068404], [7.682893, 45.068395], [7.68301, 45.06835], [7.682974, 45.068298], [7.682946, 45.068263], [7.682918, 45.068231], [7.682885, 45.068201], [7.68284, 45.068171], [7.682773, 45.068126], [7.682691, 45.068073], [7.68263, 45.068019], [7.682559, 45.067949], [7.682507, 45.067891], [7.682467, 45.067837], [7.68243, 45.06779], [7.682392, 45.067738], [7.682367, 45.067693], [7.682344, 45.06765], [7.682315, 45.067586], [7.682291, 45.067522], [7.682267, 45.067463], [7.682251, 45.067395], [7.682236, 45.067332], [7.682216, 45.067276], [7.682188, 45.067227], [7.682158, 45.067171], [7.682146, 45.067123], [7.682124, 45.067093], [7.682466, 45.06697], [7.68252, 45.066949], [7.682596, 45.066921], [7.683293, 45.066656], [7.684604, 45.066168], [7.685635, 45.065801], [7.685712, 45.06577], [7.685756, 45.065833], [7.686016, 45.066213], [7.686609, 45.06708], [7.686621, 45.067095], [7.686673, 45.067161], [7.687148, 45.067855], [7.687153, 45.067866], [7.687125, 45.067877], [7.687093, 45.067889], [7.686052, 45.068261], [7.68577, 45.068374], [7.684868, 45.068734], [7.684814, 45.068755], [7.684691, 45.068802], [7.68448, 45.068881], [7.684181, 45.068992], [7.684155, 45.069], [7.684124, 45.069011], [7.683754, 45.069144], [7.683749, 45.069137], [7.683729, 45.069109], [7.683219, 45.068404], [7.683199, 45.068376], [7.683189, 45.068364], [7.683167, 45.068332], [7.683146, 45.0683], [7.683046, 45.068337], [7.683026, 45.068344], [7.68301, 45.06835], [7.682893, 45.068395], [7.682869, 45.068404]]]}}, {"type": "Feature", "properties": {"color_index": 6, "feature_type": "territory", "owner": "rival6", "is_premium": false, "cx": 7.680236, "cy": 45.073084, "area_m2": 45798, "pin": "pin-rival6"}, "geometry": {"type": "Polygon", "coordinates": [[[7.678717, 45.074395], [7.679467, 45.07412], [7.679497, 45.07411], [7.678978, 45.073356], [7.678515, 45.072671], [7.678501, 45.072659], [7.678371, 45.07249], [7.678364, 45.072463], [7.678276, 45.072332], [7.678594, 45.072217], [7.678594, 45.072217], [7.678676, 45.072226], [7.678797, 45.072273], [7.678923, 45.07233], [7.67905, 45.072428], [7.679065, 45.072443], [7.679396, 45.07232], [7.680365, 45.071974], [7.6804, 45.071961], [7.680407, 45.071959], [7.680433, 45.071949], [7.681108, 45.071719], [7.681123, 45.071739], [7.681281, 45.071941], [7.681474, 45.072176], [7.681529, 45.072249], [7.681653, 45.072414], [7.680985, 45.072649], [7.680965, 45.072656], [7.680938, 45.072667], [7.680928, 45.07267], [7.680894, 45.072681], [7.680921, 45.072718], [7.680999, 45.072839], [7.681042, 45.072903], [7.681, 45.072917], [7.680972, 45.072926], [7.681092, 45.073109], [7.681211, 45.07329], [7.681244, 45.073279], [7.681284, 45.073265], [7.681429, 45.07348], [7.681435, 45.073489], [7.681448, 45.073508], [7.681469, 45.073537], [7.681478, 45.073551], [7.68186, 45.074129], [7.681924, 45.074227], [7.681583, 45.074322], [7.680929, 45.074486], [7.680913, 45.07449], [7.680542, 45.073903], [7.680524, 45.073874], [7.680514, 45.073861], [7.680504, 45.073847], [7.680487, 45.073854], [7.679546, 45.074178], [7.679534, 45.074161], [7.679497, 45.07411], [7.679467, 45.07412], [7.678717, 45.074395]]]}}, {"type": "Feature", "properties": {"color_index": 7, "feature_type": "territory", "owner": "rival7", "is_premium": false, "cx": 7.692398, "cy": 45.067216, "area_m2": 32316, "pin": "pin-rival7"}, "geometry": {"type": "Polygon", "coordinates": [[[7.691177, 45.068374], [7.691118, 45.068291], [7.6911, 45.068271], [7.691066, 45.068248], [7.691017, 45.068236], [7.690973, 45.068234], [7.690915, 45.068241], [7.690867, 45.068253], [7.690827, 45.068272], [7.690791, 45.068296], [7.690759, 45.068327], [7.69075, 45.068362], [7.690751, 45.068391], [7.690761, 45.068419], [7.691044, 45.068816], [7.692285, 45.068335], [7.691633, 45.067425], [7.691607, 45.067392], [7.691648, 45.067367], [7.691631, 45.067349], [7.691573, 45.067283], [7.691557, 45.067264], [7.691545, 45.067247], [7.691496, 45.067189], [7.691471, 45.067157], [7.690981, 45.066512], [7.690943, 45.066461], [7.690986, 45.066445], [7.691009, 45.066436], [7.69126, 45.06634], [7.692038, 45.066043], [7.692109, 45.066016], [7.692146, 45.066063], [7.692526, 45.066526], [7.692579, 45.066495], [7.69265, 45.066449], [7.692926, 45.066269], [7.693065, 45.066178], [7.693249, 45.066059], [7.693415, 45.065951], [7.693431, 45.065941], [7.693459, 45.065958], [7.693516, 45.066], [7.693536, 45.066015], [7.693554, 45.066028], [7.693615, 45.066073], [7.693625, 45.066086], [7.693471, 45.066184], [7.693385, 45.066237], [7.693381, 45.066239], [7.692988, 45.066493], [7.692985, 45.066495], [7.692878, 45.066565], [7.692769, 45.066637], [7.692738, 45.066657], [7.692716, 45.066671], [7.692699, 45.066682], [7.692746, 45.066719], [7.693254, 45.067101], [7.693319, 45.067173], [7.693346, 45.067194], [7.693411, 45.067244], [7.693446, 45.06729], [7.693827, 45.067772], [7.693882, 45.067841], [7.692969, 45.06817], [7.69286, 45.068211], [7.692412, 45.068381], [7.692374, 45.068396], [7.691832, 45.068606], [7.691101, 45.068892], [7.691089, 45.068877], [7.691077, 45.068862], [7.691044, 45.068816], [7.690761, 45.068419], [7.690751, 45.068391], [7.69075, 45.068362], [7.690759, 45.068327], [7.690791, 45.068296], [7.690827, 45.068272], [7.690867, 45.068253], [7.690915, 45.068241], [7.690973, 45.068234], [7.691017, 45.068236], [7.691066, 45.068248], [7.6911, 45.068271], [7.691118, 45.068291], [7.691177, 45.068374]]]}}, {"type": "Feature", "properties": {"color_index": 8, "feature_type": "territory", "owner": "rival8", "is_premium": false, "cx": 7.677952, "cy": 45.070576, "area_m2": 37300, "pin": "pin-rival8"}, "geometry": {"type": "Polygon", "coordinates": [[[7.676529, 45.071344], [7.676451, 45.071256], [7.676429, 45.07121], [7.676446, 45.071196], [7.676466, 45.071191], [7.676405, 45.071142], [7.676365, 45.071066], [7.676375, 45.07098], [7.676377, 45.070952], [7.676638, 45.07086], [7.67683, 45.070786], [7.676893, 45.070782], [7.67694, 45.0707], [7.676995, 45.070673], [7.677013, 45.070665], [7.67708, 45.070643], [7.677113, 45.070632], [7.677143, 45.070613], [7.677168, 45.070604], [7.677149, 45.070576], [7.677098, 45.070515], [7.677093, 45.070501], [7.677084, 45.070486], [7.677069, 45.070463], [7.67705, 45.070437], [7.677042, 45.070426], [7.676995, 45.070443], [7.676984, 45.070426], [7.676544, 45.06982], [7.676543, 45.069811], [7.676555, 45.069807], [7.676546, 45.069796], [7.676524, 45.069761], [7.676507, 45.069737], [7.676498, 45.069729], [7.67648, 45.069724], [7.676285, 45.069447], [7.676193, 45.069313], [7.6762, 45.069311], [7.676501, 45.069197], [7.676689, 45.069126], [7.676683, 45.069122], [7.676665, 45.069098], [7.676706, 45.069081], [7.676768, 45.069056], [7.676783, 45.06905], [7.676853, 45.069148], [7.676876, 45.069179], [7.677134, 45.069539], [7.677173, 45.069594], [7.677323, 45.069804], [7.677341, 45.069822], [7.677371, 45.069839], [7.677409, 45.069857], [7.677462, 45.069875], [7.677514, 45.069884], [7.677708, 45.070075], [7.677733, 45.070109], [7.677755, 45.070141], [7.67791, 45.070239], [7.67809, 45.070113], [7.67814, 45.070096], [7.678346, 45.070024], [7.678727, 45.06989], [7.678813, 45.069859], [7.678857, 45.069844], [7.678876, 45.069871], [7.678831, 45.069886], [7.679138, 45.07029], [7.679157, 45.070313], [7.67917, 45.070327], [7.679203, 45.070368], [7.679217, 45.070385], [7.679402, 45.070399], [7.679397, 45.070421], [7.679379, 45.070503], [7.679404, 45.070487], [7.67968, 45.070508], [7.679771, 45.070533], [7.67986, 45.070546], [7.679874, 45.070548], [7.679957, 45.070559], [7.679977, 45.070562], [7.679856, 45.070602], [7.679594, 45.070692], [7.679578, 45.070698], [7.679553, 45.07075], [7.67954, 45.070755], [7.679512, 45.070763], [7.679503, 45.070765], [7.679494, 45.070769], [7.679463, 45.07078], [7.679707, 45.0711], [7.679868, 45.071334], [7.67986, 45.071337], [7.679555, 45.071446], [7.678997, 45.071646], [7.678969, 45.071656], [7.678566, 45.07106], [7.678563, 45.071056], [7.678544, 45.071033], [7.678513, 45.071013], [7.677663, 45.07131], [7.677574, 45.071338], [7.677461, 45.071379], [7.677437, 45.071343], [7.677428, 45.07133], [7.677058, 45.071456], [7.676955, 45.071309], [7.67689, 45.071318], [7.676834, 45.071311], [7.676692, 45.071456], [7.676615, 45.071406], [7.676529, 45.071344]]]}}, {"type": "Feature", "properties": {"color_index": 9, "feature_type": "territory", "owner": "rival9", "is_premium": false, "cx": 7.68614, "cy": 45.064283, "area_m2": 53613, "pin": "pin-rival9"}, "geometry": {"type": "Polygon", "coordinates": [[[7.685347, 45.065255], [7.685345, 45.065252], [7.684921, 45.064645], [7.684906, 45.064624], [7.68488, 45.064585], [7.684861, 45.064559], [7.684458, 45.063989], [7.684406, 45.063916], [7.684292, 45.063753], [7.684321, 45.063742], [7.68432, 45.063725], [7.68435, 45.063714], [7.684328, 45.063683], [7.684294, 45.063634], [7.684982, 45.063393], [7.685309, 45.063278], [7.685334, 45.063312], [7.68539, 45.063292], [7.685455, 45.063268], [7.686451, 45.062909], [7.686504, 45.06289], [7.686523, 45.062882], [7.686553, 45.062869], [7.686583, 45.062858], [7.686591, 45.062855], [7.68662, 45.062899], [7.686778, 45.062844], [7.686876, 45.062947], [7.68695, 45.062994], [7.686941, 45.063095], [7.686981, 45.063206], [7.687016, 45.063283], [7.68709, 45.063366], [7.687164, 45.063422], [7.687247, 45.063468], [7.687295, 45.063573], [7.687325, 45.063634], [7.687338, 45.063658], [7.687178, 45.063714], [7.687203, 45.063748], [7.687233, 45.063787], [7.687224, 45.063791], [7.687232, 45.063802], [7.687211, 45.06381], [7.687186, 45.063819], [7.687941, 45.064909], [7.687966, 45.064946], [7.687974, 45.064957], [7.687955, 45.064964], [7.687896, 45.064985], [7.686924, 45.065338], [7.686838, 45.065374], [7.686733, 45.065416], [7.685777, 45.065745], [7.685712, 45.06577], [7.685682, 45.065727], [7.685615, 45.065634], [7.685347, 45.065255]]]}}, {"type": "Feature", "properties": {"color_index": 10, "feature_type": "territory", "owner": "rival10", "is_premium": false, "cx": 7.690295, "cy": 45.075747, "area_m2": 26038, "pin": "pin-rival10"}, "geometry": {"type": "Polygon", "coordinates": [[[7.688913, 45.077184], [7.689064, 45.076991], [7.689809, 45.077284], [7.689908, 45.077323], [7.690106, 45.077066], [7.690044, 45.077041], [7.690024, 45.077034], [7.690245, 45.076756], [7.690422, 45.076534], [7.68883, 45.076084], [7.688687, 45.07602], [7.688668, 45.076012], [7.688711, 45.075985], [7.688752, 45.075959], [7.688839, 45.075879], [7.68935, 45.075348], [7.689575, 45.075079], [7.689649, 45.075089], [7.689678, 45.075066], [7.689714, 45.07505], [7.689855, 45.07501], [7.689898, 45.075008], [7.689991, 45.075046], [7.690035, 45.074979], [7.690039, 45.074973], [7.690134, 45.074872], [7.690151, 45.074857], [7.690157, 45.07485], [7.690249, 45.074902], [7.691393, 45.075444], [7.691432, 45.075456], [7.691466, 45.075421], [7.691481, 45.075407], [7.691496, 45.075392], [7.69152, 45.075403], [7.691534, 45.075409], [7.691616, 45.075445], [7.691694, 45.075481], [7.691701, 45.07549], [7.691726, 45.075502], [7.691738, 45.075508], [7.692311, 45.075763], [7.692336, 45.075774], [7.692321, 45.075791], [7.692291, 45.075826], [7.69224, 45.075882], [7.69222, 45.075904], [7.692181, 45.075953], [7.69224, 45.075984], [7.692142, 45.076112], [7.692063, 45.076084], [7.692146, 45.075986], [7.692125, 45.075978], [7.691527, 45.075714], [7.69151, 45.075712], [7.691488, 45.075715], [7.691423, 45.075694], [7.691364, 45.075751], [7.691029, 45.076067], [7.690884, 45.076205], [7.690724, 45.076351], [7.690656, 45.076415], [7.690608, 45.076462], [7.690568, 45.076504], [7.690512, 45.076565], [7.690433, 45.076654], [7.690329, 45.076779], [7.690106, 45.077066], [7.689908, 45.077323], [7.689809, 45.077284], [7.689064, 45.076991], [7.688913, 45.077184]]]}}, {"type": "Feature", "properties": {"color_index": 11, "feature_type": "territory", "owner": "rival11", "is_premium": false, "cx": 7.690272, "cy": 45.064736, "area_m2": 29318, "pin": "pin-rival11"}, "geometry": {"type": "Polygon", "coordinates": [[[7.689285, 45.065592], [7.690032, 45.065297], [7.690093, 45.065273], [7.689508, 45.064472], [7.689463, 45.064424], [7.689441, 45.064393], [7.689428, 45.064375], [7.688928, 45.063663], [7.688979, 45.063668], [7.689876, 45.063687], [7.690494, 45.063699], [7.690815, 45.063704], [7.69089, 45.06383], [7.690901, 45.063848], [7.691017, 45.063804], [7.69102, 45.063809], [7.691648, 45.063588], [7.69164, 45.063576], [7.69168, 45.063561], [7.691715, 45.063607], [7.691635, 45.063635], [7.691047, 45.06384], [7.690925, 45.063883], [7.69065, 45.063984], [7.690705, 45.064061], [7.690733, 45.064098], [7.691591, 45.065285], [7.691615, 45.06532], [7.691531, 45.065352], [7.690481, 45.065722], [7.69043, 45.065741], [7.690361, 45.065765], [7.690334, 45.065774], [7.689548, 45.066043], [7.689527, 45.066015], [7.689506, 45.065986], [7.689441, 45.065896], [7.689237, 45.065611], [7.689285, 45.065592]]]}}, {"type": "Feature", "properties": {"color_index": 0, "feature_type": "territory", "owner": "rival12", "is_premium": false, "cx": 7.686134, "cy": 45.076507, "area_m2": 23321, "pin": "pin-rival12"}, "geometry": {"type": "Polygon", "coordinates": [[[7.684964, 45.077276], [7.685145, 45.076916], [7.685181, 45.076844], [7.684972, 45.076529], [7.684928, 45.076463], [7.68501, 45.076434], [7.685044, 45.076423], [7.685503, 45.076264], [7.68545, 45.076186], [7.685437, 45.076166], [7.685428, 45.076154], [7.685414, 45.076133], [7.685346, 45.076032], [7.685316, 45.075988], [7.685276, 45.075928], [7.68526, 45.075903], [7.684871, 45.075314], [7.684921, 45.0753], [7.684936, 45.075296], [7.685125, 45.075577], [7.685159, 45.075594], [7.685366, 45.0759], [7.686076, 45.07568], [7.686121, 45.075665], [7.686151, 45.075655], [7.686175, 45.075647], [7.686178, 45.075651], [7.686208, 45.075697], [7.686224, 45.075691], [7.686236, 45.075687], [7.686258, 45.07568], [7.68646, 45.075614], [7.686584, 45.075574], [7.68664, 45.075657], [7.686652, 45.075674], [7.686656, 45.075681], [7.686713, 45.075763], [7.686717, 45.075769], [7.686722, 45.075777], [7.686775, 45.075853], [7.686804, 45.075898], [7.686783, 45.075919], [7.686709, 45.075943], [7.687058, 45.076483], [7.687113, 45.076571], [7.687154, 45.076641], [7.687374, 45.077049], [7.687416, 45.077126], [7.687358, 45.077139], [7.687336, 45.077145], [7.687324, 45.077148], [7.687318, 45.077149], [7.687268, 45.077162], [7.687235, 45.077171], [7.687216, 45.077176], [7.687201, 45.077179], [7.687131, 45.077198], [7.687087, 45.077124], [7.687043, 45.077045], [7.686959, 45.077065], [7.686767, 45.077109], [7.685661, 45.077396], [7.685641, 45.077361], [7.685454, 45.076977], [7.685231, 45.076933], [7.685145, 45.076916], [7.684964, 45.077276]]]}}, {"type": "Feature", "properties": {"color_index": 1, "feature_type": "territory", "owner": "rival13", "is_premium": false, "cx": 7.695358, "cy": 45.070036, "area_m2": 53095, "pin": "pin-rival13"}, "geometry": {"type": "Polygon", "coordinates": [[[7.693346, 45.071344], [7.693969, 45.070702], [7.693944, 45.070647], [7.693988, 45.070607], [7.694038, 45.070555], [7.693985, 45.070464], [7.693956, 45.070418], [7.693916, 45.070361], [7.693817, 45.070232], [7.693798, 45.070209], [7.693774, 45.070234], [7.69375, 45.070211], [7.693703, 45.070164], [7.693718, 45.070157], [7.693365, 45.069667], [7.693341, 45.069674], [7.693175, 45.06944], [7.693164, 45.069424], [7.693221, 45.069403], [7.6932, 45.069371], [7.693183, 45.069349], [7.693344, 45.069292], [7.693703, 45.069165], [7.694438, 45.068897], [7.69464, 45.06882], [7.69466, 45.068847], [7.694841, 45.069101], [7.694883, 45.069159], [7.694949, 45.069254], [7.694975, 45.069291], [7.695035, 45.069342], [7.695068, 45.069364], [7.695166, 45.069425], [7.695225, 45.069367], [7.695238, 45.069355], [7.695716, 45.068887], [7.695764, 45.068924], [7.696225, 45.06928], [7.696506, 45.069497], [7.696537, 45.069521], [7.69661, 45.069577], [7.697603, 45.070337], [7.697635, 45.070362], [7.697565, 45.070407], [7.697003, 45.070771], [7.696962, 45.070798], [7.696889, 45.070844], [7.696189, 45.071288], [7.696089, 45.071352], [7.696069, 45.071365], [7.69604, 45.071384], [7.696004, 45.071356], [7.695946, 45.071311], [7.695032, 45.070598], [7.694966, 45.070546], [7.694888, 45.070593], [7.694315, 45.070946], [7.694262, 45.070978], [7.694055, 45.070694], [7.69401, 45.070722], [7.693969, 45.070702], [7.693346, 45.071344]]]}}, {"type": "Feature", "properties": {"color_index": 2, "feature_type": "territory", "owner": "rival14", "is_premium": false, "cx": 7.681942, "cy": 45.064526, "area_m2": 53124, "pin": "pin-rival14"}, "geometry": {"type": "Polygon", "coordinates": [[[7.68075, 45.065429], [7.680714, 45.065377], [7.680704, 45.065363], [7.68068, 45.065328], [7.680339, 45.064863], [7.680323, 45.064836], [7.680297, 45.064804], [7.680262, 45.064759], [7.680393, 45.064713], [7.680515, 45.064672], [7.680501, 45.064655], [7.68033, 45.064419], [7.680264, 45.064327], [7.680251, 45.064309], [7.680239, 45.064292], [7.680366, 45.064248], [7.680522, 45.063904], [7.680535, 45.063876], [7.680443, 45.063745], [7.680375, 45.063648], [7.680438, 45.063625], [7.680502, 45.063602], [7.680436, 45.063514], [7.680427, 45.063501], [7.680701, 45.063402], [7.680786, 45.063357], [7.680786, 45.063357], [7.680846, 45.06329], [7.681293, 45.063894], [7.681875, 45.063683], [7.682663, 45.063407], [7.682748, 45.063378], [7.6832, 45.063215], [7.683486, 45.06311], [7.683503, 45.063132], [7.683644, 45.063339], [7.683766, 45.063518], [7.683785, 45.06355], [7.683591, 45.063622], [7.683522, 45.063643], [7.683312, 45.063719], [7.683177, 45.063767], [7.682971, 45.063836], [7.68307, 45.06397], [7.683088, 45.063995], [7.683126, 45.064049], [7.683655, 45.064809], [7.683762, 45.064956], [7.683791, 45.064997], [7.68364, 45.065054], [7.68243, 45.065489], [7.682373, 45.065509], [7.6819, 45.065684], [7.681839, 45.065706], [7.681375, 45.065867], [7.681358, 45.065844], [7.68124, 45.065886], [7.681123, 45.065928], [7.68111, 45.06591], [7.680924, 45.065661], [7.680772, 45.065458], [7.68075, 45.065429]]]}}, {"type": "Feature", "properties": {"color_index": 3, "feature_type": "territory", "owner": "rival15", "is_premium": false, "cx": 7.682754, "cy": 45.076391, "area_m2": 82165, "pin": "pin-rival15"}, "geometry": {"type": "Polygon", "coordinates": [[[7.680642, 45.077307], [7.680589, 45.077233], [7.68041, 45.076979], [7.680338, 45.076876], [7.680299, 45.07683], [7.680255, 45.076846], [7.680204, 45.076767], [7.680137, 45.076674], [7.680108, 45.076636], [7.680089, 45.076611], [7.680083, 45.076603], [7.680003, 45.076488], [7.680021, 45.076482], [7.680093, 45.076445], [7.680258, 45.076356], [7.680403, 45.076265], [7.680489, 45.076197], [7.680542, 45.076147], [7.680776, 45.075893], [7.680875, 45.075861], [7.68134, 45.075831], [7.681609, 45.075774], [7.681783, 45.075699], [7.681693, 45.075558], [7.681403, 45.07517], [7.681394, 45.075158], [7.682255, 45.074867], [7.682277, 45.074859], [7.682352, 45.074833], [7.682366, 45.074828], [7.68248, 45.074791], [7.683024, 45.07458], [7.683813, 45.075545], [7.683839, 45.075591], [7.683764, 45.07561], [7.683335, 45.075753], [7.683347, 45.075773], [7.683794, 45.075617], [7.683852, 45.075632], [7.683895, 45.075643], [7.684489, 45.075797], [7.684671, 45.076078], [7.68474, 45.076181], [7.684795, 45.076263], [7.68485, 45.076345], [7.684859, 45.076359], [7.684872, 45.076378], [7.684928, 45.076463], [7.684972, 45.076529], [7.685181, 45.076844], [7.685145, 45.076916], [7.684918, 45.077367], [7.684359, 45.077552], [7.684298, 45.077573], [7.684235, 45.077593], [7.684192, 45.077608], [7.684168, 45.077616], [7.684141, 45.077624], [7.684039, 45.077658], [7.68395, 45.077688], [7.683432, 45.077859], [7.682783, 45.077708], [7.682705, 45.07769], [7.682505, 45.077354], [7.682479, 45.077362], [7.682465, 45.077366], [7.682447, 45.077353], [7.682426, 45.077355], [7.682392, 45.077366], [7.682388, 45.07736], [7.682371, 45.077332], [7.682356, 45.077308], [7.682318, 45.077249], [7.68231, 45.077235], [7.682303, 45.077225], [7.682239, 45.077124], [7.682233, 45.077114], [7.682228, 45.077106], [7.682213, 45.077082], [7.682185, 45.077039], [7.682173, 45.077019], [7.682153, 45.076987], [7.680751, 45.077459], [7.680642, 45.077307]]]}}, {"type": "Feature", "properties": {"color_index": 4, "feature_type": "territory", "owner": "rival16", "is_premium": false, "cx": 7.67857, "cy": 45.076043, "area_m2": 84573, "pin": "pin-rival16"}, "geometry": {"type": "Polygon", "coordinates": [[[7.676754, 45.077198], [7.676664, 45.077071], [7.676504, 45.07684], [7.676479, 45.076802], [7.676448, 45.076757], [7.676095, 45.076261], [7.676055, 45.076201], [7.676029, 45.076166], [7.675657, 45.075652], [7.675627, 45.075612], [7.675703, 45.075584], [7.676433, 45.075323], [7.676505, 45.075297], [7.676571, 45.075272], [7.67655, 45.075245], [7.676541, 45.075236], [7.676541, 45.075236], [7.67693, 45.0751], [7.676938, 45.075109], [7.676954, 45.075131], [7.676965, 45.075145], [7.676969, 45.075151], [7.676984, 45.075152], [7.677004, 45.075174], [7.677018, 45.075171], [7.677089, 45.075158], [7.677106, 45.075182], [7.677205, 45.075328], [7.677448, 45.075245], [7.67748, 45.075265], [7.677488, 45.075271], [7.677499, 45.075267], [7.677508, 45.07528], [7.677542, 45.075294], [7.677576, 45.075283], [7.6776, 45.075274], [7.677611, 45.075271], [7.67762, 45.075268], [7.67781, 45.07554], [7.677824, 45.075559], [7.677927, 45.075524], [7.6784, 45.075367], [7.678409, 45.075381], [7.678833, 45.075227], [7.679022, 45.075157], [7.679032, 45.075122], [7.680015, 45.074818], [7.680668, 45.074599], [7.680924, 45.074504], [7.680957, 45.074558], [7.681388, 45.07515], [7.681394, 45.075158], [7.681403, 45.07517], [7.681693, 45.075558], [7.681783, 45.075699], [7.681609, 45.075774], [7.68134, 45.075831], [7.680875, 45.075861], [7.680776, 45.075893], [7.680542, 45.076147], [7.680489, 45.076197], [7.680403, 45.076265], [7.680258, 45.076356], [7.680093, 45.076445], [7.680021, 45.076482], [7.680003, 45.076488], [7.680083, 45.076603], [7.680089, 45.076611], [7.680108, 45.076636], [7.680051, 45.076654], [7.68003, 45.076661], [7.679305, 45.076917], [7.679098, 45.077009], [7.678888, 45.077079], [7.678901, 45.077101], [7.678906, 45.077109], [7.678892, 45.077114], [7.678851, 45.077129], [7.678817, 45.07714], [7.6788, 45.077146], [7.677182, 45.077724], [7.677169, 45.077679], [7.67711, 45.0777], [7.677088, 45.077669], [7.676754, 45.077198]]]}}, {"type": "Feature", "properties": {"color_index": 5, "feature_type": "territory", "owner": "rival17", "is_premium": false, "cx": 7.694698, "cy": 45.076029, "area_m2": 42904, "pin": "pin-rival17"}, "geometry": {"type": "Polygon", "coordinates": [[[7.692914, 45.077081], [7.693356, 45.076599], [7.693377, 45.076576], [7.693389, 45.076564], [7.693422, 45.07653], [7.693492, 45.076451], [7.693566, 45.076367], [7.693599, 45.076331], [7.693619, 45.07631], [7.693858, 45.07605], [7.693904, 45.076003], [7.692822, 45.075525], [7.692752, 45.075492], [7.692707, 45.075471], [7.693096, 45.075085], [7.693455, 45.074732], [7.693579, 45.074624], [7.693618, 45.074591], [7.693627, 45.074595], [7.693749, 45.074649], [7.694683, 45.075061], [7.69475, 45.075092], [7.694717, 45.075127], [7.69523, 45.075345], [7.695248, 45.07537], [7.695276, 45.075393], [7.69531, 45.075412], [7.69539, 45.075456], [7.695563, 45.07555], [7.695612, 45.075574], [7.695559, 45.075629], [7.695512, 45.075678], [7.695566, 45.075752], [7.695681, 45.075912], [7.695976, 45.076325], [7.696015, 45.07638], [7.696059, 45.076444], [7.69651, 45.077082], [7.696532, 45.077113], [7.696546, 45.077136], [7.696521, 45.077148], [7.696508, 45.077161], [7.696504, 45.077165], [7.696496, 45.077185], [7.696497, 45.077206], [7.696507, 45.077226], [7.696517, 45.077235], [7.696471, 45.077288], [7.69642, 45.077346], [7.696228, 45.077561], [7.695395, 45.077181], [7.695319, 45.077145], [7.695281, 45.077129], [7.694553, 45.076812], [7.694495, 45.076786], [7.694445, 45.076764], [7.693656, 45.076408], [7.693608, 45.076386], [7.693566, 45.076367], [7.693492, 45.076451], [7.693422, 45.07653], [7.693389, 45.076564], [7.693377, 45.076576], [7.693356, 45.076599], [7.692914, 45.077081]]]}}, {"type": "Feature", "properties": {"color_index": 6, "feature_type": "territory", "owner": "rival18", "is_premium": false, "cx": 7.697076, "cy": 45.066803, "area_m2": 41394, "pin": "pin-rival18"}, "geometry": {"type": "Polygon", "coordinates": [[[7.695524, 45.068416], [7.695589, 45.06835], [7.695617, 45.06832], [7.695581, 45.068276], [7.695629, 45.068248], [7.695684, 45.068321], [7.696511, 45.0675], [7.696531, 45.06748], [7.696592, 45.06742], [7.696546, 45.067386], [7.696519, 45.067365], [7.696152, 45.067079], [7.696044, 45.066995], [7.695977, 45.066941], [7.695346, 45.066436], [7.695272, 45.066378], [7.695314, 45.066353], [7.69537, 45.066318], [7.695413, 45.066291], [7.695801, 45.066045], [7.695921, 45.065969], [7.695947, 45.065952], [7.695973, 45.065936], [7.695994, 45.065923], [7.696037, 45.065895], [7.696903, 45.065333], [7.696928, 45.065316], [7.696953, 45.0653], [7.696959, 45.065296], [7.697002, 45.06533], [7.697821, 45.065971], [7.697852, 45.065995], [7.697887, 45.066017], [7.697939, 45.066049], [7.698021, 45.066113], [7.698083, 45.066161], [7.698253, 45.066284], [7.697549, 45.066989], [7.697529, 45.06701], [7.697479, 45.067062], [7.697602, 45.067161], [7.697605, 45.067163], [7.698774, 45.068083], [7.69873, 45.068112], [7.698701, 45.068131], [7.698341, 45.068364], [7.698116, 45.068509], [7.698067, 45.068541], [7.698017, 45.068504], [7.696954, 45.0677], [7.696903, 45.067661], [7.696801, 45.067582], [7.696775, 45.067561], [7.69671, 45.067512], [7.696668, 45.067479], [7.696592, 45.06742], [7.696531, 45.06748], [7.696511, 45.0675], [7.695684, 45.068321], [7.695629, 45.068248], [7.695581, 45.068276], [7.695617, 45.06832], [7.695589, 45.06835], [7.695524, 45.068416]]]}}, {"type": "Feature", "properties": {"color_index": 7, "feature_type": "territory", "owner": "rival19", "is_premium": false, "cx": 7.678133, "cy": 45.064209, "area_m2": 62238, "pin": "pin-rival19"}, "geometry": {"type": "Polygon", "coordinates": [[[7.676798, 45.065313], [7.676517, 45.064911], [7.676484, 45.064863], [7.676447, 45.06481], [7.675947, 45.064095], [7.675937, 45.064081], [7.67592, 45.064057], [7.675877, 45.063999], [7.676433, 45.063794], [7.676554, 45.063749], [7.676559, 45.063748], [7.676496, 45.06366], [7.67648, 45.063637], [7.67647, 45.063623], [7.676463, 45.063612], [7.676459, 45.063605], [7.676427, 45.063562], [7.676413, 45.063543], [7.676383, 45.063499], [7.676354, 45.063457], [7.676322, 45.063415], [7.676311, 45.063399], [7.676542, 45.063316], [7.67665, 45.063278], [7.677054, 45.063136], [7.677416, 45.063006], [7.677438, 45.063037], [7.677477, 45.063039], [7.677495, 45.063063], [7.677524, 45.063105], [7.67753, 45.063112], [7.677534, 45.063121], [7.677572, 45.063175], [7.677593, 45.063202], [7.677629, 45.06325], [7.677692, 45.063335], [7.677832, 45.063284], [7.677883, 45.063265], [7.67789, 45.063263], [7.677911, 45.063255], [7.678057, 45.063201], [7.678445, 45.06306], [7.678512, 45.063052], [7.678568, 45.06305], [7.678611, 45.063055], [7.678645, 45.063069], [7.678712, 45.063124], [7.678837, 45.063306], [7.679056, 45.063643], [7.679088, 45.063693], [7.679232, 45.063903], [7.679251, 45.06393], [7.679287, 45.063978], [7.679319, 45.064022], [7.679358, 45.06407], [7.679394, 45.06411], [7.679415, 45.06413], [7.679438, 45.064149], [7.679465, 45.064167], [7.679495, 45.064184], [7.679505, 45.064189], [7.679527, 45.064199], [7.679567, 45.064213], [7.679607, 45.064225], [7.679652, 45.064236], [7.679698, 45.064246], [7.679744, 45.064251], [7.679788, 45.064254], [7.679825, 45.064254], [7.679864, 45.06425], [7.679906, 45.064245], [7.679949, 45.064237], [7.679978, 45.064231], [7.680035, 45.064216], [7.680018, 45.064192], [7.680009, 45.06418], [7.679994, 45.06416], [7.679983, 45.064146], [7.679924, 45.064069], [7.679868, 45.064079], [7.679797, 45.064079], [7.679743, 45.064076], [7.679686, 45.064067], [7.679613, 45.064047], [7.679565, 45.064015], [7.67954, 45.063981], [7.679482, 45.063909], [7.679447, 45.063823], [7.679385, 45.063649], [7.679408, 45.06358], [7.679423, 45.063473], [7.679472, 45.06333], [7.679562, 45.063124], [7.679786, 45.063478], [7.679891, 45.063599], [7.680018, 45.063714], [7.680081, 45.063693], [7.680103, 45.063686], [7.680142, 45.063672], [7.68016, 45.063665], [7.68018, 45.063658], [7.680302, 45.063615], [7.68034, 45.063601], [7.680375, 45.063648], [7.680443, 45.063745], [7.680535, 45.063876], [7.680522, 45.063904], [7.680366, 45.064248], [7.680239, 45.064292], [7.680251, 45.064309], [7.680264, 45.064327], [7.68033, 45.064419], [7.680501, 45.064655], [7.680515, 45.064672], [7.680393, 45.064713], [7.680262, 45.064759], [7.679207, 45.065143], [7.679231, 45.065178], [7.679255, 45.065212], [7.679252, 45.065226], [7.679267, 45.065252], [7.67925, 45.065258], [7.679239, 45.065262], [7.679209, 45.065274], [7.679202, 45.065266], [7.679166, 45.065257], [7.679046, 45.065299], [7.678834, 45.064997], [7.678811, 45.065006], [7.678789, 45.064977], [7.678776, 45.06496], [7.678769, 45.06495], [7.678758, 45.064936], [7.678719, 45.064883], [7.678706, 45.064866], [7.67835, 45.064996], [7.678327, 45.065005], [7.677707, 45.065226], [7.677688, 45.065232], [7.67765, 45.065246], [7.677639, 45.06525], [7.677573, 45.065273], [7.677547, 45.065282], [7.67693, 45.065501], [7.676798, 45.065313]]]}}, {"type": "Feature", "properties": {"color_index": 8, "feature_type": "territory", "owner": "rival20", "is_premium": false, "cx": 7.694982, "cy": 45.064282, "area_m2": 74313, "pin": "pin-rival20"}, "geometry": {"type": "Polygon", "coordinates": [[[7.693389, 45.065448], [7.693712, 45.065237], [7.693755, 45.065205], [7.693817, 45.065168], [7.694434, 45.064765], [7.694463, 45.064747], [7.694452, 45.064738], [7.694425, 45.064715], [7.694391, 45.064663], [7.693955, 45.06432], [7.693899, 45.064276], [7.693865, 45.064247], [7.693831, 45.064218], [7.69266, 45.063317], [7.692607, 45.063281], [7.692677, 45.063256], [7.693137, 45.063082], [7.693816, 45.062825], [7.693917, 45.062787], [7.694093, 45.062724], [7.694125, 45.062712], [7.694129, 45.06271], [7.694189, 45.062688], [7.69421, 45.06268], [7.694684, 45.062513], [7.694726, 45.062499], [7.694348, 45.062204], [7.694445, 45.062138], [7.694843, 45.062484], [7.694871, 45.062468], [7.694887, 45.062481], [7.694939, 45.062528], [7.694987, 45.062565], [7.695009, 45.062554], [7.694944, 45.062498], [7.694957, 45.06249], [7.694981, 45.062477], [7.695798, 45.063154], [7.696121, 45.06341], [7.696288, 45.063543], [7.696635, 45.063821], [7.696581, 45.063858], [7.696534, 45.06389], [7.696493, 45.063921], [7.696457, 45.063947], [7.696492, 45.063974], [7.696516, 45.063993], [7.696563, 45.064029], [7.696573, 45.064037], [7.696582, 45.064044], [7.696513, 45.064088], [7.696067, 45.064376], [7.696027, 45.064403], [7.695965, 45.064445], [7.695932, 45.064465], [7.695945, 45.064476], [7.695948, 45.064479], [7.695992, 45.064513], [7.69605, 45.064558], [7.696319, 45.064771], [7.696337, 45.064786], [7.696357, 45.064823], [7.696384, 45.064845], [7.696404, 45.064861], [7.696901, 45.065251], [7.696959, 45.065296], [7.696928, 45.065316], [7.696903, 45.065333], [7.696501, 45.065594], [7.696037, 45.065895], [7.695994, 45.065923], [7.695973, 45.065936], [7.695947, 45.065952], [7.695921, 45.065969], [7.695801, 45.066045], [7.69537, 45.066318], [7.695314, 45.066353], [7.695272, 45.066378], [7.695028, 45.066187], [7.694725, 45.065944], [7.694699, 45.065923], [7.694674, 45.065902], [7.694603, 45.065866], [7.69434, 45.065657], [7.694306, 45.065632], [7.694285, 45.065615], [7.694241, 45.065579], [7.694226, 45.065566], [7.694209, 45.065553], [7.694149, 45.065508], [7.694134, 45.065497], [7.694116, 45.065483], [7.69382, 45.065255], [7.693793, 45.065236], [7.693755, 45.065205], [7.693712, 45.065237], [7.693389, 45.065448]]]}}, {"type": "Feature", "properties": {"color_index": 9, "feature_type": "territory", "owner": "rival21", "is_premium": false, "cx": 7.697422, "cy": 45.073807, "area_m2": 44229, "pin": "pin-rival21"}, "geometry": {"type": "Polygon", "coordinates": [[[7.695459, 45.074319], [7.695321, 45.07447], [7.695281, 45.074512], [7.695218, 45.074485], [7.694882, 45.074337], [7.694586, 45.074203], [7.694545, 45.074181], [7.694516, 45.074155], [7.694457, 45.074175], [7.69445, 45.074167], [7.694413, 45.074119], [7.694406, 45.074109], [7.69423, 45.073864], [7.694143, 45.073744], [7.694116, 45.073705], [7.694084, 45.073659], [7.694066, 45.073634], [7.694032, 45.073584], [7.694011, 45.073554], [7.694, 45.073537], [7.693957, 45.073476], [7.694214, 45.073391], [7.69424, 45.073382], [7.694307, 45.07336], [7.69566, 45.072911], [7.6957, 45.072968], [7.695908, 45.073255], [7.695939, 45.073254], [7.696127, 45.073251], [7.696367, 45.073258], [7.696596, 45.07327], [7.6969, 45.073297], [7.696942, 45.073301], [7.696957, 45.073276], [7.696985, 45.073255], [7.697014, 45.073245], [7.697058, 45.073234], [7.697095, 45.073226], [7.697216, 45.073225], [7.697603, 45.073217], [7.698204, 45.073212], [7.698341, 45.073199], [7.698292, 45.073264], [7.698354, 45.073271], [7.698417, 45.073294], [7.698457, 45.07332], [7.698495, 45.073351], [7.698539, 45.073394], [7.698591, 45.073438], [7.69865, 45.073475], [7.698727, 45.073512], [7.698831, 45.073553], [7.698941, 45.073579], [7.699009, 45.073586], [7.699087, 45.07359], [7.699161, 45.073584], [7.699265, 45.073558], [7.699311, 45.073555], [7.699404, 45.073548], [7.699485, 45.073549], [7.699583, 45.073561], [7.699736, 45.073593], [7.69976, 45.073598], [7.699752, 45.073627], [7.699754, 45.073655], [7.699772, 45.073692], [7.699797, 45.073725], [7.699838, 45.073769], [7.699872, 45.07391], [7.700055, 45.074276], [7.700218, 45.074392], [7.700212, 45.074446], [7.70017, 45.074516], [7.70013, 45.074503], [7.700099, 45.074541], [7.69971, 45.074979], [7.69951, 45.074909], [7.698973, 45.07473], [7.698909, 45.074697], [7.698857, 45.074663], [7.698806, 45.074628], [7.698733, 45.074581], [7.698672, 45.074544], [7.698602, 45.074511], [7.698475, 45.07446], [7.698355, 45.074409], [7.698277, 45.074372], [7.698235, 45.074352], [7.697762, 45.07412], [7.697592, 45.074046], [7.69747, 45.073997], [7.697342, 45.073946], [7.697241, 45.073907], [7.697146, 45.073874], [7.697071, 45.073851], [7.696967, 45.073828], [7.696876, 45.07381], [7.696761, 45.07379], [7.696626, 45.073772], [7.696522, 45.073762], [7.696433, 45.073754], [7.69633, 45.07375], [7.696229, 45.073747], [7.69612, 45.073743], [7.696013, 45.073742], [7.69591, 45.073747], [7.695822, 45.073755], [7.695732, 45.073766], [7.695647, 45.07378], [7.695539, 45.073804], [7.695407, 45.073831], [7.695238, 45.073867], [7.695088, 45.073902], [7.694969, 45.073934], [7.694826, 45.073977], [7.6947, 45.074018], [7.694741, 45.074079], [7.694779, 45.074135], [7.694671, 45.074173], [7.694586, 45.074203], [7.694882, 45.074337], [7.695218, 45.074485], [7.695281, 45.074512], [7.695321, 45.07447], [7.695459, 45.074319]]]}}]}